LANDSAT 8               
1 39084U 13008A   26088.16240404  .00000401  00000+0  98974-4 0  9996
2 39084  98.1884 159.5652 0001189  94.1313 266.0022 14.57128339686244
SARAL                   
1 39086U 13009A   26088.15404936  .00000149  00000+0  70671-4 0  9993
2 39086  98.5564 275.7278 0002482 135.3618 224.7767 14.32834809684146
GAOFEN-1                
1 39150U 13018A   26088.16526101  .00000824  00000+0  12529-3 0  9992
2 39150  97.9144 161.8417 0017654 159.6347 200.5571 14.76514086696430
VNREDSAT 1              
1 39160U 13021B   26088.17120762  .00000333  00000+0  70677-4 0  9995
2 39160  97.9178 144.6223 0001421  80.3996 279.7368 14.64915692688570
ARIRANG-5 (KOMPSAT-5)   
1 39227U 13042A   26088.15652737  .00000992  00000+0  75145-4 0  9998
2 39227  97.6210 275.9722 0004938  64.9412 295.2326 15.04541123691825
SKYSAT-A                
1 39418U 13066C   26088.08688557  .00004210  00000+0  24439-3 0  9993
2 39418  97.3915 140.0257 0020475 228.4611 131.4864 15.12489001676379
DUBAISAT-2              
1 39419U 13066D   26088.21268843  .00006628  00000+0  41621-3 0  9998
2 39419  97.4544  80.5016 0009943 316.1977  43.8463 15.09558946674322
GPM-CORE                
1 39574U 14009C   26088.13054202  .00019919  00000+0  42136-3 0  9990
2 39574  64.9728 216.3483 0012445 272.5860  87.3856 15.45118434685449
SENTINEL-1A             
1 39634U 14016A   26088.13894815 -.00000084  00000+0 -81347-5 0  9991
2 39634  98.1820  96.8309 0001363  84.8748 275.2607 14.59198864638340
KAZEOSAT 1              
1 39731U 14024A   26088.22846138  .00000134  00000+0  53939-4 0  9992
2 39731  98.3251 162.6501 0001062  98.7071 261.4239 14.42045330627036
ALOS-2                  
1 39766U 14029A   26088.19698603  .00001242  00000+0  17327-3 0  9994
2 39766  97.9187 186.5103 0001909 102.7133 257.4292 14.79445822639751
KAZEOSAT 2              
1 40010U 14033A   26088.13596911  .00001235  00000+0  14931-3 0  9996
2 40010  97.5481 291.9494 0007435 216.2274 143.8439 14.85370375637070
HODOYOSHI-4             
1 40011U 14033B   26088.14748019  .00002286  00000+0  25420-3 0  9998
2 40011  97.5463 276.8383 0022856 207.8952 152.1042 14.87912880636902
DEIMOS-2                
1 40013U 14033D   26088.19296620  .00001864  00000+0  18239-3 0  9992
2 40013  97.5946 325.4523 0000845 107.2413 252.8899 14.93481782625787
HODOYOSHI-3             
1 40015U 14033F   26088.01697022  .00001363  00000+0  16383-3 0  9998
2 40015  97.6333 254.3280 0031565 258.0304 101.7372 14.85191055635722
SPOT 7                  
1 40053U 14034A   26088.18442341  .00000339  00000+0  78554-4 0  9992
2 40053  98.0708 152.7144 0001563  93.5727 266.5653 14.60882732625454
SKYSAT-B                
1 40072U 14037D   26087.83018725  .00001800  00000+0  20380-3 0  9999
2 40072  98.3759  42.2670 0005684 165.3620 194.7760 14.87796013634017
