[{"OBJECT_NAME":"LANDSAT 8","OBJECT_ID":"2013-008A","EPOCH":"2026-03-29T03:53:51.709056","MEAN_MOTION":14.57128339,"ECCENTRICITY":0.0001189,"INCLINATION":98.1884,"RA_OF_ASC_NODE":159.5652,"ARG_OF_PERICENTER":94.1313,"MEAN_ANOMALY":266.0022,"EPHEMERIS_TYPE":0,"CLASSIFICATION_TYPE":"U","NORAD_CAT_ID":39084,"ELEMENT_SET_NO":999,"REV_AT_EPOCH":68624,"BSTAR":9.8974e-5,"MEAN_MOTION_DOT":4.01e-6,"MEAN_MOTION_DDOT":0},{"OBJECT_NAME":"SARAL","OBJECT_ID":"2013-009A","EPOCH":"2026-03-29T03:41:49.864704","MEAN_MOTION":14.32834809,"ECCENTRICITY":0.0002482,"INCLINATION":98.5564,"RA_OF_ASC_NODE":275.7278,"ARG_OF_PERICENTER":135.3618,"MEAN_ANOMALY":224.7767,"EPHEMERIS_TYPE":0,"CLASSIFICATION_TYPE":"U","NORAD_CAT_ID":39086,"ELEMENT_SET_NO":999,"REV_AT_EPOCH":68414,"BSTAR":7.0671e-5,"MEAN_MOTION_DOT":1.49e-6,"MEAN_MOTION_DDOT":0},{"OBJECT_NAME":"GAOFEN-1","OBJECT_ID":"2013-018A","EPOCH":"2026-03-29T03:57:58.551264","MEAN_MOTION":14.76514086,"ECCENTRICITY":0.0017654,"INCLINATION":97.9144,"RA_OF_ASC_NODE":161.8417,"ARG_OF_PERICENTER":159.6347,"MEAN_ANOMALY":200.5571,"EPHEMERIS_TYPE":0,"CLASSIFICATION_TYPE":"U","NORAD_CAT_ID":39150,"ELEMENT_SET_NO":999,"REV_AT_EPOCH":69643,"BSTAR":0.00012529,"MEAN_MOTION_DOT":8.24e-6,"MEAN_MOTION_DDOT":0},{"OBJECT_NAME":"VNREDSAT 1","OBJECT_ID":"2013-021B","EPOCH":"2026-03-29T04:06:32.338368","MEAN_MOTION":14.64915692,"ECCENTRICITY":0.0001421,"INCLINATION":97.9178,"RA_OF_ASC_NODE":144.6223,"ARG_OF_PERICENTER":80.3996,"MEAN_ANOMALY":279.7368,"EPHEMERIS_TYPE":0,"CLASSIFICATION_TYPE":"U","NORAD_CAT_ID":39160,"ELEMENT_SET_NO":999,"REV_AT_EPOCH":68857,"BSTAR":7.0677e-5,"MEAN_MOTION_DOT":3.33e-6,"MEAN_MOTION_DDOT":0},{"OBJECT_NAME":"ARIRANG-5 (KOMPSAT-5)","OBJECT_ID":"2013-042A","EPOCH":"2026-03-29T03:45:23.964768","MEAN_MOTION":15.04541123,"ECCENTRICITY":0.0004938,"INCLINATION":97.621,"RA_OF_ASC_NODE":275.9722,"ARG_OF_PERICENTER":64.9412,"MEAN_ANOMALY":295.2326,"EPHEMERIS_TYPE":0,"CLASSIFICATION_TYPE":"U","NORAD_CAT_ID":39227,"ELEMENT_SET_NO":999,"REV_AT_EPOCH":69182,"BSTAR":7.5145e-5,"MEAN_MOTION_DOT":9.92e-6,"MEAN_MOTION_DDOT":0},{"OBJECT_NAME":"SKYSAT-A","OBJECT_ID":"2013-066C","EPOCH":"2026-03-29T02:05:06.913248","MEAN_MOTION":15.12489001,"ECCENTRICITY":0.0020475,"INCLINATION":97.3915,"RA_OF_ASC_NODE":140.0257,"ARG_OF_PERICENTER":228.4611,"MEAN_ANOMALY":131.4864,"EPHEMERIS_TYPE":0,"CLASSIFICATION_TYPE":"U","NORAD_CAT_ID":39418,"ELEMENT_SET_NO":999,"REV_AT_EPOCH":67637,"BSTAR":0.00024439,"MEAN_MOTION_DOT":4.21e-5,"MEAN_MOTION_DDOT":0},{"OBJECT_NAME":"DUBAISAT-2","OBJECT_ID":"2013-066D","EPOCH":"2026-03-29T05:06:16.280352","MEAN_MOTION":15.09558946,"ECCENTRICITY":0.0009943,"INCLINATION":97.4544,"RA_OF_ASC_NODE":80.5016,"ARG_OF_PERICENTER":316.1977,"MEAN_ANOMALY":43.8463,"EPHEMERIS_TYPE":0,"CLASSIFICATION_TYPE":"U","NORAD_CAT_ID":39419,"ELEMENT_SET_NO":999,"REV_AT_EPOCH":67432,"BSTAR":0.00041621,"MEAN_MOTION_DOT":6.628e-5,"MEAN_MOTION_DDOT":0},{"OBJECT_NAME":"GPM-CORE","OBJECT_ID":"2014-009C","EPOCH":"2026-03-29T03:07:58.830528","MEAN_MOTION":15.45118434,"ECCENTRICITY":0.0012445,"INCLINATION":64.9728,"RA_OF_ASC_NODE":216.3483,"ARG_OF_PERICENTER":272.586,"MEAN_ANOMALY":87.3856,"EPHEMERIS_TYPE":0,"CLASSIFICATION_TYPE":"U","NORAD_CAT_ID":39574,"ELEMENT_SET_NO":999,"REV_AT_EPOCH":68544,"BSTAR":0.00042136,"MEAN_MOTION_DOT":0.00019919,"MEAN_MOTION_DDOT":0},{"OBJECT_NAME":"SENTINEL-1A","OBJECT_ID":"2014-016A","EPOCH":"2026-03-29T03:20:05.120160","MEAN_MOTION":14.59198864,"ECCENTRICITY":0.0001363,"INCLINATION":98.182,"RA_OF_ASC_NODE":96.8309,"ARG_OF_PERICENTER":84.8748,"MEAN_ANOMALY":275.2607,"EPHEMERIS_TYPE":0,"CLASSIFICATION_TYPE":"U","NORAD_CAT_ID":39634,"ELEMENT_SET_NO":999,"REV_AT_EPOCH":63834,"BSTAR":-8.1347e-6,"MEAN_MOTION_DOT":-8.4e-7,"MEAN_MOTION_DDOT":0},{"OBJECT_NAME":"KAZEOSAT 1","OBJECT_ID":"2014-024A","EPOCH":"2026-03-29T05:28:59.063232","MEAN_MOTION":14.4204533,"ECCENTRICITY":0.0001062,"INCLINATION":98.3251,"RA_OF_ASC_NODE":162.6501,"ARG_OF_PERICENTER":98.7071,"MEAN_ANOMALY":261.4239,"EPHEMERIS_TYPE":0,"CLASSIFICATION_TYPE":"U","NORAD_CAT_ID":39731,"ELEMENT_SET_NO":999,"REV_AT_EPOCH":62703,"BSTAR":5.3939e-5,"MEAN_MOTION_DOT":1.34e-6,"MEAN_MOTION_DDOT":0},{"OBJECT_NAME":"ALOS-2","OBJECT_ID":"2014-029A","EPOCH":"2026-03-29T04:43:39.592992","MEAN_MOTION":14.79445822,"ECCENTRICITY":0.0001909,"INCLINATION":97.9187,"RA_OF_ASC_NODE":186.5103,"ARG_OF_PERICENTER":102.7133,"MEAN_ANOMALY":257.4292,"EPHEMERIS_TYPE":0,"CLASSIFICATION_TYPE":"U","NORAD_CAT_ID":39766,"ELEMENT_SET_NO":999,"REV_AT_EPOCH":63975,"BSTAR":0.00017327,"MEAN_MOTION_DOT":1.242e-5,"MEAN_MOTION_DDOT":0},{"OBJECT_NAME":"KAZEOSAT 2","OBJECT_ID":"2014-033A","EPOCH":"2026-03-29T03:15:47.731104","MEAN_MOTION":14.85370375,"ECCENTRICITY":0.0007435,"INCLINATION":97.5481,"RA_OF_ASC_NODE":291.9494,"ARG_OF_PERICENTER":216.2274,"MEAN_ANOMALY":143.8439,"EPHEMERIS_TYPE":0,"CLASSIFICATION_TYPE":"U","NORAD_CAT_ID":40010,"ELEMENT_SET_NO":999,"REV_AT_EPOCH":63707,"BSTAR":0.00014931,"MEAN_MOTION_DOT":1.235e-5,"MEAN_MOTION_DDOT":0},{"OBJECT_NAME":"HODOYOSHI-4","OBJECT_ID":"2014-033B","EPOCH":"2026-03-29T03:32:22.288416","MEAN_MOTION":14.8791288,"ECCENTRICITY":0.0022856,"INCLINATION":97.5463,"RA_OF_ASC_NODE":276.8383,"ARG_OF_PERICENTER":207.8952,"MEAN_ANOMALY":152.1042,"EPHEMERIS_TYPE":0,"CLASSIFICATION_TYPE":"U","NORAD_CAT_ID":40011,"ELEMENT_SET_NO":999,"REV_AT_EPOCH":63690,"BSTAR":0.0002542,"MEAN_MOTION_DOT":2.286e-5,"MEAN_MOTION_DDOT":0},{"OBJECT_NAME":"DEIMOS-2","OBJECT_ID":"2014-033D","EPOCH":"2026-03-29T04:37:52.279680","MEAN_MOTION":14.93481782,"ECCENTRICITY":8.45e-5,"INCLINATION":97.5946,"RA_OF_ASC_NODE":325.4523,"ARG_OF_PERICENTER":107.2413,"MEAN_ANOMALY":252.8899,"EPHEMERIS_TYPE":0,"CLASSIFICATION_TYPE":"U","NORAD_CAT_ID":40013,"ELEMENT_SET_NO":999,"REV_AT_EPOCH":62578,"BSTAR":0.00018239,"MEAN_MOTION_DOT":1.864e-5,"MEAN_MOTION_DDOT":0},{"OBJECT_NAME":"HODOYOSHI-3","OBJECT_ID":"2014-033F","EPOCH":"2026-03-29T00:24:26.227008","MEAN_MOTION":14.85191055,"ECCENTRICITY":0.0031565,"INCLINATION":97.6333,"RA_OF_ASC_NODE":254.328,"ARG_OF_PERICENTER":258.0304,"MEAN_ANOMALY":101.7372,"EPHEMERIS_TYPE":0,"CLASSIFICATION_TYPE":"U","NORAD_CAT_ID":40015,"ELEMENT_SET_NO":999,"REV_AT_EPOCH":63572,"BSTAR":0.00016383,"MEAN_MOTION_DOT":1.363e-5,"MEAN_MOTION_DDOT":0},{"OBJECT_NAME":"SPOT 7","OBJECT_ID":"2014-034A","EPOCH":"2026-03-29T04:25:34.182624","MEAN_MOTION":14.60882732,"ECCENTRICITY":0.0001563,"INCLINATION":98.0708,"RA_OF_ASC_NODE":152.7144,"ARG_OF_PERICENTER":93.5727,"MEAN_ANOMALY":266.5653,"EPHEMERIS_TYPE":0,"CLASSIFICATION_TYPE":"U","NORAD_CAT_ID":40053,"ELEMENT_SET_NO":999,"REV_AT_EPOCH":62545,"BSTAR":7.8554e-5,"MEAN_MOTION_DOT":3.39e-6,"MEAN_MOTION_DDOT":0},{"OBJECT_NAME":"SKYSAT-B","OBJECT_ID":"2014-037D","EPOCH":"2026-03-28T19:55:28.178400","MEAN_MOTION":14.87796013,"ECCENTRICITY":0.00056848,"INCLINATION":98.3759,"RA_OF_ASC_NODE":42.267,"ARG_OF_PERICENTER":165.362,"MEAN_ANOMALY":194.776,"EPHEMERIS_TYPE":0,"CLASSIFICATION_TYPE":"U","NORAD_CAT_ID":40072,"ELEMENT_SET_NO":999,"REV_AT_EPOCH":63401,"BSTAR":0.0002037983,"MEAN_MOTION_DOT":1.8e-5,"MEAN_MOTION_DDOT":0}]
